STARLINK-2116
1 47724U 21017C   26092.91389418  .01051308  59714-3  15943-2 0  9998
2 47724  53.0319 320.5836 0006248 266.5623  93.4693 16.04005518283359
